GSAT0101 (PRN E11)      
1 37846U 11060A   21350.23651385 -.00000083  00000+0  00000+0 0  9990
2 37846  56.9232  26.3226 0002319 313.8810  46.1634  1.70475235 63093
GSAT0102 (PRN E12)      
1 37847U 11060B   21350.15553900 -.00000084  00000+0  00000+0 0  9997
2 37847  56.9238  26.3245 0004274 299.3375  57.4621  1.70475500 63093
GSAT0103 (PRN E19)      
1 38857U 12055A   21349.10379195  .00000065  00000+0  00000+0 0  9997
2 38857  55.0889 146.7686 0001794 226.1646 133.8049  1.70473732 56962
GSAT0104 (PRN E20)      
1 38858U 12055B   21349.07420441  .00000065  00000+0  00000+0 0  9995
2 38858  55.0891 146.7708 0001611 133.9848 226.0131  1.70474011 56966
GSAT0201 (PRN E18)      
1 40128U 14050A   21349.41039367 -.00000116  00000+0  00000+0 0  9994
2 40128  50.3917 339.6151 1634586 117.6218 259.9570  1.85519565 47800
GSAT0202 (PRN E14)      
1 40129U 14050B   21350.21107865 -.00000115  00000+0  00000+0 0  9993
2 40129  50.4194 338.6384 1631600 118.4569 258.9831  1.85520227 49985
GSAT0203 (PRN E26)      
1 40544U 15017A   21350.01808130 -.00000085  00000+0  00000+0 0  9995
2 40544  56.7179  26.3870 0005158 252.5940 107.4124  1.70476443 41174
GSAT0204 (PRN E22)      
1 40545U 15017B   21349.68396546 -.00000086  00000+0  00000+0 0  9991
2 40545  56.7237  26.4077 0004823 241.4119 118.6016  1.70475856  4218
GSAT0205 (PRN E24)      
1 40889U 15045A   21350.03790450 -.00000029  00000+0  00000+0 0  9993
2 40889  55.7471 267.0305 0005752   6.2336 353.8018  1.70474721 38981
GSAT0206 (PRN E30)      
1 40890U 15045B   21347.91152140 -.00000043  00000+0  00000+0 0  9992
2 40890  55.7478 267.0852 0004168 354.3332   5.6824  1.70472897 38978
GSAT0209 (PRN E09)      
1 41174U 15079A   21349.84691774  .00000061  00000+0  00000+0 0  9999
2 41174  55.1051 146.4503 0002037 339.4317  20.5401  1.70473437 36749
GSAT0208 (PRN E08)      
1 41175U 15079B   21349.47999375  .00000063  00000+0  00000+0 0  9999
2 41175  55.1028 146.4592 0001392 356.5991   3.3819  1.70473382 37318
GSAT0211 (PRN E02)      
1 41549U 16030A   21349.01301617 -.00000036  00000+0  00000+0 0  9999
2 41549  55.8919 266.9685 0005010 332.5025  27.4945  1.70474447 34624
GSAT0210 (PRN E01)      
1 41550U 16030B   21349.89232245 -.00000030  00000+0  00000+0 0  9991
2 41550  55.8908 266.9459 0003900 310.1044  49.8890  1.70474505 34635
GSAT0207 (PRN E07)      
1 41859U 16069A   21348.96624198  .00000064  00000+0  00000+0 0  9990
2 41859  54.7644 146.7013 0001671 307.4149  52.5548  1.70473367 31353
GSAT0212 (PRN E03)      
1 41860U 16069B   21349.99283062  .00000061  00000+0  00000+0 0  9994
2 41860  54.7623 146.6709 0001647  20.4137 339.5725  1.70473377 31621
GSAT0213 (PRN E04)      
1 41861U 16069C   21347.42541506  .00000070  00000+0  00000+0 0  9991
2 41861  54.7640 146.7469 0001511 244.6065 115.3680  1.70473454 31441
GSAT0214 (PRN E05)      
1 41862U 16069D   21349.91885404  .00000061  00000+0  00000+0 0  9996
2 41862  54.7632 146.6725 0000690 231.2892 128.6847  1.70473492 31617
GSAT0215 (PRN E21)      
1 43055U 17079A   21348.06306125 -.00000042  00000+0  00000+0 0  9997
2 43055  55.8679 266.8298 0003249 308.9992  50.9930  1.70473663 24928
GSAT0216 (PRN E25)      
1 43056U 17079B   21350.11519482 -.00000028  00000+0  00000+0 0  9993
2 43056  55.8665 266.7732 0004826 299.5744  60.4068  1.70473872 24973
GSAT0217 (PRN E27)      
1 43057U 17079C   21348.57561401 -.00000039  00000+0  00000+0 0  9991
2 43057  55.8659 266.8153 0004774 311.7948  48.1868  1.70473740 24931
GSAT0218 (PRN E31)      
1 43058U 17079D   21349.96880753 -.00000029  00000+0  00000+0 0  9999
2 43058  55.8649 266.7745 0005123 294.1036  65.8712  1.70473807 24981
GSAT0221 (PRN E15)      
1 43564U 18060A   21346.93412729 -.00000094  00000+0  00000+0 0  9992
2 43564  57.0998  26.2394 0005454 266.6453  93.3481  1.70476149 21086
GSAT0222 (PRN E33)      
1 43565U 18060B   21349.50030754 -.00000086  00000+0  00000+0 0  9994
2 43565  57.1032  26.1698 0005064 273.4029  86.6011  1.70476197 21172
GSAT0219 (PRN E36)      
1 43566U 18060C   21346.78796164 -.00000094  00000+0  00000+0 0  9995
2 43566  57.1024  26.2454 0004641 272.1820  87.8204  1.70476124 21100
GSAT0220 (PRN E13)      
1 43567U 18060D   21349.35428927 -.00000086  00000+0  00000+0 0  9992
2 43567  57.1036  26.1756 0004944 269.5364  90.4686  1.70476228 21139
GSAT0223                
1 49809U 21116A   21350.16347657 -.00000084  00000+0  00000+0 0  9992
2 49809  57.0987  26.0508 0022813  80.6996 328.1440  1.68521155   188
GSAT0224                
1 49810U 21116B   21350.10257477 -.00000085  00000+0  00000+0 0  9999
2 49810  57.0794  26.0743 0009466 212.8002 147.2058  1.67734900   181
